NORAD_CAT_ID,OBJECT_NAME,OBJECT_TYPE,EPOCH,MEAN_MOTION,ECCENTRICITY,INCLINATION,RA_OF_ASC_NODE,ARG_OF_PERICENTER,MEAN_ANOMALY,BSTAR,MEAN_MOTION_DOT,MEAN_MOTION_DDOT,TLE_LINE0,TLE_LINE1,TLE_LINE2,SEMIMAJOR_AXIS,PERIOD,APOGEE,PERIGEE,DECAYED
51776.0,STARLINK-3608,PAYLOAD,2024-01-08 03:43:14,15.08843355,0.0001609,53.2184,292.458,96.5727,263.5449,8.79e-05,1.111e-05,0.0,0 STARLINK-3608,1 51776U 22017J   24008.15502861  .00001111  00000-0  87900-4 0  9992,2 51776  53.2184 292.4580 0001609  96.5727 263.5449 15.08843355104564,6917.87,95.437,540.848,538.622,0.0
51776.0,STARLINK-3608,PAYLOAD,2024-01-08 22:47:52,15.08843945,0.0001712,53.2184,288.89,104.4801,255.6381,-0.00012042,-2.204e-05,0.0,0 STARLINK-3608,1 51776U 22017J   24008.94991768 -.00002204  00000-0 -12042-3 0  9997,2 51776  53.2184 288.8900 0001712 104.4801 255.6381 15.08843945103196,6917.868,95.437,540.918,538.549,0.0
51776.0,STARLINK-3608,PAYLOAD,2024-01-09 01:58:39,15.08837973,0.0001485,53.2177,288.2967,82.3483,277.7678,5.0466e-05,5.15e-06,0.0,0 STARLINK-3608,1 51776U 22017J   24009.08239611  .00000515  00000-0  50466-4 0  9999,2 51776  53.2177 288.2967 0001485  82.3483 277.7678 15.08837973104708,6917.887,95.438,540.779,538.724,0.0
51776.0,STARLINK-3608,PAYLOAD,2024-01-09 22:38:39,15.08846039,0.0001448,53.2175,284.4347,96.2234,263.8923,3.5902e-05,2.84e-06,0.0,0 STARLINK-3608,1 51776U 22017J   24009.94351225  .00000284  00000-0  35902-4 0  9991,2 51776  53.2175 284.4347 0001448  96.2234 263.8923 15.08846039103344,6917.862,95.437,540.729,538.725,0.0
51776.0,STARLINK-3608,PAYLOAD,2024-01-10 01:49:25,15.08853636,0.0001514,53.2176,283.8398,80.6609,279.4554,2.4458e-05,1.01e-06,0.0,0 STARLINK-3608,1 51776U 22017J   24010.07598845  .00000101  00000-0  24458-4 0  9990,2 51776  53.2176 283.8398 0001514  80.6609 279.4554 15.08853636104852,6917.839,95.437,540.751,538.656,0.0
51776.0,STARLINK-3608,PAYLOAD,2024-01-10 17:43:17,15.08839999,0.0001485,53.218,280.8669,83.2351,276.881,3.8277e-05,3.21e-06,0.0,0 STARLINK-3608,1 51776U 22017J   24010.73839685  .00000321  00000-0  38277-4 0  9991,2 51776  53.2180 280.8669 0001485  83.2351 276.8810 15.08839999104958,6917.88,95.438,540.773,538.718,0.0
51776.0,STARLINK-3608,PAYLOAD,2024-01-11 03:15:35,15.08845346,0.0001497,53.218,279.0795,89.4229,270.6935,9.8016e-05,1.273e-05,0.0,0 STARLINK-3608,1 51776U 22017J   24011.13583188  .00001273  00000-0  98016-4 0  9994,2 51776  53.2180 279.0795 0001497  89.4229 270.6935 15.08845346103528,6917.864,95.437,540.765,538.693,0.0
51776.0,STARLINK-3608,PAYLOAD,2024-01-11 22:20:13,15.08848567,0.0001557,53.218,275.5074,123.2802,236.8339,-3.045e-05,-7.73e-06,0.0,0 STARLINK-3608,1 51776U 22017J   24011.93071118 -.00000773  00000-0 -30450-4 0  9991,2 51776  53.2180 275.5074 0001557 123.2802 236.8339 15.08848567103643,6917.854,95.437,540.796,538.642,0.0
51776.0,STARLINK-3608,PAYLOAD,2024-01-12 03:06:22,15.08852363,0.0001766,53.2182,274.6129,131.5664,228.5479,-2.0608e-05,-6.16e-06,0.0,0 STARLINK-3608,1 51776U 22017J   24012.12942672 -.00000616  00000-0 -20608-4 0  9995,2 51776  53.2182 274.6129 0001766 131.5664 228.5479 15.08852363103671,6917.843,95.437,540.929,538.486,0.0
51776.0,STARLINK-3608,PAYLOAD,2024-01-12 22:11:01,15.08834368,0.0001343,53.2174,271.0485,100.4179,259.6964,-3.0862e-05,-7.79e-06,0.0,0 STARLINK-3608,1 51776U 22017J   24012.92432349 -.00000779  00000-0 -30862-4 0  9991,2 51776  53.2174 271.0485 0001343 100.4179 259.6964 15.08834368103797,6917.898,95.438,540.692,538.834,0.0
51776.0,STARLINK-3608,PAYLOAD,2024-01-13 02:57:10,15.08837143,0.0001394,53.2171,270.156,103.6033,256.5115,-3.8661e-06,-3.49e-06,0.0,0 STARLINK-3608,1 51776U 22017J   24013.12304124 -.00000349  00000-0 -38661-5 0  9992,2 51776  53.2171 270.1560 0001394 103.6033 256.5115 15.08837143105316,6917.889,95.438,540.718,538.79,0.0
51776.0,STARLINK-3608,PAYLOAD,2024-01-14 02:47:57,15.08851049,0.0001412,53.2171,265.6951,109.6505,250.464,8.5781e-05,1.078e-05,0.0,0 STARLINK-3608,1 51776U 22017J   24014.11663232  .00001078  00000-0  85781-4 0  9992,2 51776  53.2171 265.6951 0001412 109.6505 250.4640 15.08851049105463,6917.847,95.437,540.688,538.735,0.0
51776.0,STARLINK-3608,PAYLOAD,2024-01-14 17:06:26,15.08839687,0.0001387,53.2167,263.0194,102.2108,257.904,0.00010223,1.339e-05,0.0,0 STARLINK-3608,1 51776U 22017J   24014.71280107  .00001339  00000-0  10223-3 0  9992,2 51776  53.2167 263.0194 0001387 102.2108 257.9040 15.08839687105558,6917.881,95.438,540.706,538.787,0.0
51776.0,STARLINK-3608,PAYLOAD,2024-01-14 21:52:35,15.08844077,0.0001458,53.217,262.1266,100.8519,259.2638,0.00013045,1.789e-05,0.0,0 STARLINK-3608,1 51776U 22017J   24014.91151718  .00001789  00000-0  13045-3 0  9993,2 51776  53.2170 262.1266 0001458 100.8519 259.2638 15.08844077104096,6917.868,95.437,540.742,538.724,0.0
51776.0,STARLINK-3608,PAYLOAD,2024-01-15 20:08:00,15.0880224,0.0001563,53.2182,257.9638,62.6259,297.4892,0.00057359,8.843e-05,0.0,0 STARLINK-3608,1 51776U 22017J   24015.83889030  .00008843  00000-0  57359-3 0  9994,2 51776  53.2182 257.9638 0001563  62.6259 297.4892 15.08802240104235,6917.996,95.44,540.942,538.78,0.0
51776.0,STARLINK-3608,PAYLOAD,2024-01-16 02:29:31,15.08844369,0.0001383,53.2179,256.7741,93.6151,266.4999,-2.0803e-07,-2.91e-06,0.0,0 STARLINK-3608,1 51776U 22017J   24016.10384002 -.00000291  00000-0 -20803-6 0  9992,2 51776  53.2179 256.7741 0001383  93.6151 266.4999 15.08844369105769,6917.867,95.437,540.689,538.775,0.0
51776.0,STARLINK-3608,PAYLOAD,2024-01-16 21:34:09,15.08841567,0.0001377,53.2173,253.2048,110.2591,249.8549,-1.2587e-05,-4.88e-06,0.0,0 STARLINK-3608,1 51776U 22017J   24016.89872164 -.00000488  00000-0 -12587-4 0  9995,2 51776  53.2173 253.2048 0001377 110.2591 249.8549 15.08841567104393,6917.876,95.437,540.693,538.788,0.0
51776.0,STARLINK-3608,PAYLOAD,2024-01-17 00:44:55,15.08847083,0.0001369,53.2168,252.6104,99.2682,260.8465,-7.3484e-05,-1.457e-05,0.0,0 STARLINK-3608,1 51776U 22017J   24017.03120000 -.00001457  00000-0 -73484-4 0  9997,2 51776  53.2168 252.6104 0001369  99.2682 260.8465 15.08847083104413,6917.859,95.437,540.671,538.777,0.0
51776.0,STARLINK-3608,PAYLOAD,2024-01-17 19:49:33,15.08836883,0.0001324,53.2168,249.0423,91.5784,268.536,5.2718e-05,5.51e-06,0.0,0 STARLINK-3608,1 51776U 22017J   24017.82608602  .00000551  00000-0  52718-4 0  9992,2 51776  53.2168 249.0423 0001324  91.5784 268.5360 15.08836883106020,6917.89,95.438,540.671,538.839,0.0
51776.0,STARLINK-3608,PAYLOAD,2024-01-17 21:24:56,15.08838595,0.000134,53.2169,248.7452,88.3279,271.7867,6.3776e-05,7.27e-06,0.0,0 STARLINK-3608,1 51776U 22017J   24017.89232481  .00000727  00000-0  63776-4 0  9998,2 51776  53.2169 248.7452 0001340  88.3279 271.7867 15.08838595104545,6917.885,95.438,540.677,538.823,0.0
51776.0,STARLINK-3608,PAYLOAD,2024-01-18 00:35:42,15.08841774,0.0001381,53.2168,248.1502,88.0134,272.1016,9.1967e-05,1.176e-05,0.0,0 STARLINK-3608,1 51776U 22017J   24018.02480218  .00001176  00000-0  91967-4 0  9999,2 51776  53.2168 248.1502 0001381  88.0134 272.1016 15.08841774104562,6917.875,95.437,540.695,538.785,0.0
51776.0,STARLINK-3608,PAYLOAD,2024-01-18 21:15:44,15.08838,0.0001408,53.2166,244.2844,86.9125,273.2028,7.321e-05,8.77e-06,0.0,0 STARLINK-3608,1 51776U 22017J   24018.88592643  .00000877  00000-0  73210-4 0  9997,2 51776  53.2166 244.2844 0001408  86.9125 273.2028 15.08838000104690,6917.887,95.438,540.726,538.777,0.0
51776.0,STARLINK-3608,PAYLOAD,2024-01-19 00:26:29,15.08846763,0.0001427,53.2171,243.6878,93.207,266.9086,1.7634e-05,-7e-08,0.0,0 STARLINK-3608,1 51776U 22017J   24019.01840223 -.00000007  00000-0  17634-4 0  9997,2 51776  53.2171 243.6878 0001427  93.2070 266.9086 15.08846763106204,6917.86,95.437,540.712,538.738,0.0
51776.0,STARLINK-3608,PAYLOAD,2024-01-19 21:06:30,15.08848853,0.0001421,53.2163,239.8233,90.3073,269.8082,9.3958e-05,1.208e-05,0.0,0 STARLINK-3608,1 51776U 22017J   24019.87951798  .00001208  00000-0  93958-4 0  9997,2 51776  53.2163 239.8233 0001421  90.3073 269.8082 15.08848853104840,6917.853,95.437,540.701,538.735,0.0
51776.0,STARLINK-3608,PAYLOAD,2024-01-20 19:21:54,15.08838955,0.0001485,53.2159,235.6595,120.5217,239.5921,8.0722e-06,-1.6e-06,0.0,0 STARLINK-3608,1 51776U 22017J   24020.80688549 -.00000160  00000-0  80722-5 0  9996,2 51776  53.2159 235.6595 0001485 120.5217 239.5921 15.08838955106475,6917.884,95.438,540.776,538.721,0.0
51776.0,STARLINK-3608,PAYLOAD,2024-01-21 00:08:04,15.08837904,0.0001187,53.2144,234.7691,113.501,246.6107,-1.9958e-05,-6.05e-06,0.0,0 STARLINK-3608,1 51776U 22017J   24021.00560710 -.00000605  00000-0 -19958-4 0  9995,2 51776  53.2144 234.7691 0001187 113.5010 246.6107 15.08837904105015,6917.887,95.438,540.573,538.931,0.0
51776.0,STARLINK-3608,PAYLOAD,2024-01-21 20:48:06,15.08736166,0.0001811,53.2149,230.9037,123.4354,236.6812,0.0014373,0.00022596,0.0,0 STARLINK-3608,1 51776U 22017J   24021.86674488  .00022596  00000-0  14373-2 0  9992,2 51776  53.2149 230.9037 0001811 123.4354 236.6812 15.08736166105141,6918.198,95.444,541.316,538.81,0.0
51776.0,STARLINK-3608,PAYLOAD,2024-01-21 23:58:51,15.08845821,0.0001263,53.2152,230.3087,106.3944,253.7187,-5.63e-05,-1.184e-05,0.0,0 STARLINK-3608,1 51776U 22017J   24021.99920429 -.00001184  00000-0 -56300-4 0  9995,2 51776  53.2152 230.3087 0001263 106.3944 253.7187 15.08845821106651,6917.863,95.437,540.601,538.854,0.0
51776.0,STARLINK-3608,PAYLOAD,2024-01-22 19:03:29,15.08837763,0.0001143,53.2153,226.7404,100.4909,259.6212,8.9269e-05,1.133e-05,0.0,0 STARLINK-3608,1 51776U 22017J   24022.79408758  .00001133  00000-0  89269-4 0  9992,2 51776  53.2153 226.7404 0001143 100.4909 259.6212 15.08837763106770,6917.887,95.438,540.543,538.962,0.0
51776.0,STARLINK-3608,PAYLOAD,2024-01-22 20:38:52,15.0883821,0.0001145,53.2154,226.443,100.3471,259.765,9.064e-05,1.155e-05,0.0,0 STARLINK-3608,1 51776U 22017J   24022.86032688  .00001155  00000-0  90640-4 0  9994,2 51776  53.2154 226.4430 0001145 100.3471 259.7650 15.08838210105293,6917.886,95.438,540.543,538.959,0.0
